OCEANSAT-2              
1 35931U 09051A   26164.91120025 -.00000060  00000+0 -15568-4 0  9991
2 35931  98.2324 152.0894 0014959 245.9047 114.0555 13.99664799878871
PLEIADES 1A             
1 38012U 11076F   26164.99127558  .00000181  00000+0  48835-4 0  9995
2 38012  98.1981 240.1367 0001615  97.6477  75.7725 14.58568651771522
PLEIADES 1B             
1 39019U 12068A   26164.92387909  .00000182  00000+0  48981-4 0  9999
2 39019  98.1952 240.0202 0001655  93.9388 266.2001 14.58558281720378
PATHFINDER 1            
1 41787U 16059E   26164.93221363  .00000528  00000+0  10054-3 0  9993
2 41787  97.8166 164.3553 0027556 214.2263 145.7167 14.67659871519233
NOAA 20 (JPSS-1)        
1 43013U 17073A   26164.89993288  .00000023  00000+0  31833-4 0  9990
2 43013  98.7773 104.3917 0000287  70.7854 289.3353 14.19511149444008
PAZ                     
1 43215U 18020A   26165.07706480  .00001822  00000+0  89943-4 0  9997
2 43215  97.4453 172.5071 0001697  85.8438 274.2990 15.19143234460535
NOVASAR 1               
1 43619U 18071B   26164.91115586  .00000218  00000+0  24105-4 0  9991
2 43619  97.5076  37.3665 0001741  83.2352 276.9068 14.96238326422443
PLEIADES NEO 3          
1 48268U 21034A   26165.14665007  .00000997  00000+0  13328-3 0  9991
2 48268  97.8935 239.9574 0001352  96.4193 263.7174 14.81668329277209
NOAA 21 (JPSS-2)        
1 54234U 22150A   26164.93295434  .00000040  00000+0  39583-4 0  9991
2 54234  98.7061 103.7768 0001464 161.2915 198.8316 14.19564912186084
PARS 1                  
1 59065U 24039Q   26164.94814233  .00011730  00000+0  24452-3 0  9997
2 59065  97.4814 145.7658 0011326 121.4698 238.7659 15.45664750128149
