{
 "generated_at": "2026-06-14T08:41:33Z",
 "sources": [
  {
   "name": "CelesTrak",
   "url": "https://celestrak.org/NORAD/elements/",
   "license": "frei verfügbar; Attribution. Ursprünglich USSPACECOM/Space-Track."
  },
  {
   "name": "GCAT (J. McDowell, planet4589.org)",
   "url": "https://planet4589.org/space/gcat/",
   "license": "CC-BY 4.0"
  }
 ],
 "satellites": [
  {
   "norad": 43013,
   "name": "NOAA 20 (JPSS-1)",
   "intl": "2017-073A",
   "group": "weather",
   "gcat": {
    "class": "C",
    "category": "MET",
    "owner": "GSFC/NOAA",
    "state": "US"
   },
   "omm": {
    "OBJECT_NAME": "NOAA 20 (JPSS-1)",
    "OBJECT_ID": "2017-073A",
    "EPOCH": "2026-06-13T21:35:54.200832",
    "MEAN_MOTION": 14.19511149,
    "ECCENTRICITY": 0.00002873,
    "INCLINATION": 98.7773,
    "RA_OF_ASC_NODE": 104.3917,
    "ARG_OF_PERICENTER": 70.7854,
    "MEAN_ANOMALY": 289.3353,
    "EPHEMERIS_TYPE": 0,
    "CLASSIFICATION_TYPE": "U",
    "NORAD_CAT_ID": 43013,
    "ELEMENT_SET_NO": 999,
    "REV_AT_EPOCH": 44400,
    "BSTAR": 0.00003183327,
    "MEAN_MOTION_DOT": 2.3e-7,
    "MEAN_MOTION_DDOT": 0
   }
  },
  {
   "norad": 54234,
   "name": "NOAA 21 (JPSS-2)",
   "intl": "2022-150A",
   "group": "weather",
   "gcat": {
    "class": "C",
    "category": "MET",
    "owner": "GSFC/NOAA",
    "state": "US"
   },
   "omm": {
    "OBJECT_NAME": "NOAA 21 (JPSS-2)",
    "OBJECT_ID": "2022-150A",
    "EPOCH": "2026-06-13T22:23:27.254976",
    "MEAN_MOTION": 14.19564912,
    "ECCENTRICITY": 0.00014644,
    "INCLINATION": 98.7061,
    "RA_OF_ASC_NODE": 103.7768,
    "ARG_OF_PERICENTER": 161.2915,
    "MEAN_ANOMALY": 198.8316,
    "EPHEMERIS_TYPE": 0,
    "CLASSIFICATION_TYPE": "U",
    "NORAD_CAT_ID": 54234,
    "ELEMENT_SET_NO": 999,
    "REV_AT_EPOCH": 18608,
    "BSTAR": 0.000039582727,
    "MEAN_MOTION_DOT": 4e-7,
    "MEAN_MOTION_DDOT": 0
   }
  },
  {
   "norad": 43619,
   "name": "NOVASAR 1",
   "intl": "2018-071B",
   "group": "sar",
   "gcat": {
    "class": "B",
    "category": "IMG",
    "owner": "SSTLA",
    "state": "UK"
   },
   "omm": {
    "OBJECT_NAME": "NOVASAR 1",
    "OBJECT_ID": "2018-071B",
    "EPOCH": "2026-06-13T21:52:03.866304",
    "MEAN_MOTION": 14.96238326,
    "ECCENTRICITY": 0.00017417,
    "INCLINATION": 97.5076,
    "RA_OF_ASC_NODE": 37.3665,
    "ARG_OF_PERICENTER": 83.2352,
    "MEAN_ANOMALY": 276.9068,
    "EPHEMERIS_TYPE": 0,
    "CLASSIFICATION_TYPE": "U",
    "NORAD_CAT_ID": 43619,
    "ELEMENT_SET_NO": 999,
    "REV_AT_EPOCH": 42244,
    "BSTAR": 0.000024105203,
    "MEAN_MOTION_DOT": 0.00000218,
    "MEAN_MOTION_DDOT": 0
   }
  },
  {
   "norad": 35931,
   "name": "OCEANSAT-2",
   "intl": "2009-051A",
   "group": "resource",
   "gcat": {
    "class": null,
    "category": null,
    "owner": null,
    "state": null
   },
   "omm": {
    "OBJECT_NAME": "OCEANSAT-2",
    "OBJECT_ID": "2009-051A",
    "EPOCH": "2026-06-13T21:52:07.701600",
    "MEAN_MOTION": 13.99664799,
    "ECCENTRICITY": 0.00149593,
    "INCLINATION": 98.2324,
    "RA_OF_ASC_NODE": 152.0894,
    "ARG_OF_PERICENTER": 245.9047,
    "MEAN_ANOMALY": 114.0555,
    "EPHEMERIS_TYPE": 0,
    "CLASSIFICATION_TYPE": "U",
    "NORAD_CAT_ID": 35931,
    "ELEMENT_SET_NO": 999,
    "REV_AT_EPOCH": 87887,
    "BSTAR": -0.000015567968,
    "MEAN_MOTION_DOT": -6e-7,
    "MEAN_MOTION_DDOT": 0
   }
  },
  {
   "norad": 59065,
   "name": "PARS 1",
   "intl": "2024-039Q",
   "group": "resource",
   "gcat": {
    "class": "C",
    "category": "IMG",
    "owner": "IRSA",
    "state": "IR"
   },
   "omm": {
    "OBJECT_NAME": "PARS 1",
    "OBJECT_ID": "2024-039Q",
    "EPOCH": "2026-06-13T22:45:19.497312",
    "MEAN_MOTION": 15.4566475,
    "ECCENTRICITY": 0.00113266,
    "INCLINATION": 97.4814,
    "RA_OF_ASC_NODE": 145.7658,
    "ARG_OF_PERICENTER": 121.4698,
    "MEAN_ANOMALY": 238.7659,
    "EPHEMERIS_TYPE": 0,
    "CLASSIFICATION_TYPE": "U",
    "NORAD_CAT_ID": 59065,
    "ELEMENT_SET_NO": 999,
    "REV_AT_EPOCH": 12814,
    "BSTAR": 0.00024452281,
    "MEAN_MOTION_DOT": 0.0001173,
    "MEAN_MOTION_DDOT": 0
   }
  },
  {
   "norad": 41787,
   "name": "PATHFINDER 1",
   "intl": "2016-059E",
   "group": "resource",
   "gcat": {
    "class": null,
    "category": null,
    "owner": null,
    "state": null
   },
   "omm": {
    "OBJECT_NAME": "PATHFINDER 1",
    "OBJECT_ID": "2016-059E",
    "EPOCH": "2026-06-13T22:22:23.257632",
    "MEAN_MOTION": 14.67659871,
    "ECCENTRICITY": 0.00275562,
    "INCLINATION": 97.8166,
    "RA_OF_ASC_NODE": 164.3553,
    "ARG_OF_PERICENTER": 214.2263,
    "MEAN_ANOMALY": 145.7167,
    "EPHEMERIS_TYPE": 0,
    "CLASSIFICATION_TYPE": "U",
    "NORAD_CAT_ID": 41787,
    "ELEMENT_SET_NO": 999,
    "REV_AT_EPOCH": 51923,
    "BSTAR": 0.00010053559,
    "MEAN_MOTION_DOT": 0.00000528,
    "MEAN_MOTION_DDOT": 0
   }
  },
  {
   "norad": 43215,
   "name": "PAZ",
   "intl": "2018-020A",
   "group": "sar",
   "gcat": {
    "class": "D",
    "category": "IMG-R",
    "owner": "HISD",
    "state": "E"
   },
   "omm": {
    "OBJECT_NAME": "PAZ",
    "OBJECT_ID": "2018-020A",
    "EPOCH": "2026-06-14T01:50:58.398720",
    "MEAN_MOTION": 15.19143234,
    "ECCENTRICITY": 0.0001697,
    "INCLINATION": 97.4453,
    "RA_OF_ASC_NODE": 172.5071,
    "ARG_OF_PERICENTER": 85.8438,
    "MEAN_ANOMALY": 274.299,
    "EPHEMERIS_TYPE": 0,
    "CLASSIFICATION_TYPE": "U",
    "NORAD_CAT_ID": 43215,
    "ELEMENT_SET_NO": 999,
    "REV_AT_EPOCH": 46053,
    "BSTAR": 0.000089943,
    "MEAN_MOTION_DOT": 0.00001822,
    "MEAN_MOTION_DDOT": 0
   }
  },
  {
   "norad": 38012,
   "name": "PLEIADES 1A",
   "intl": "2011-076F",
   "group": "resource",
   "gcat": {
    "class": null,
    "category": "IMG",
    "owner": "CNES/DGA",
    "state": "F"
   },
   "omm": {
    "OBJECT_NAME": "PLEIADES 1A",
    "OBJECT_ID": "2011-076F",
    "EPOCH": "2026-06-13T23:47:26.210112",
    "MEAN_MOTION": 14.58568651,
    "ECCENTRICITY": 0.00016157,
    "INCLINATION": 98.1981,
    "RA_OF_ASC_NODE": 240.1367,
    "ARG_OF_PERICENTER": 97.6477,
    "MEAN_ANOMALY": 75.7725,
    "EPHEMERIS_TYPE": 0,
    "CLASSIFICATION_TYPE": "U",
    "NORAD_CAT_ID": 38012,
    "ELEMENT_SET_NO": 999,
    "REV_AT_EPOCH": 77152,
    "BSTAR": 0.000048834549,
    "MEAN_MOTION_DOT": 0.00000181,
    "MEAN_MOTION_DDOT": 0
   }
  },
  {
   "norad": 39019,
   "name": "PLEIADES 1B",
   "intl": "2012-068A",
   "group": "resource",
   "gcat": {
    "class": null,
    "category": "IMG",
    "owner": "CNES",
    "state": "F"
   },
   "omm": {
    "OBJECT_NAME": "PLEIADES 1B",
    "OBJECT_ID": "2012-068A",
    "EPOCH": "2026-06-13T22:10:23.153376",
    "MEAN_MOTION": 14.58558281,
    "ECCENTRICITY": 0.0001655,
    "INCLINATION": 98.1952,
    "RA_OF_ASC_NODE": 240.0202,
    "ARG_OF_PERICENTER": 93.9388,
    "MEAN_ANOMALY": 266.2001,
    "EPHEMERIS_TYPE": 0,
    "CLASSIFICATION_TYPE": "U",
    "NORAD_CAT_ID": 39019,
    "ELEMENT_SET_NO": 999,
    "REV_AT_EPOCH": 72037,
    "BSTAR": 0.000048981046,
    "MEAN_MOTION_DOT": 0.00000182,
    "MEAN_MOTION_DDOT": 0
   }
  },
  {
   "norad": 48268,
   "name": "PLEIADES NEO 3",
   "intl": "2021-034A",
   "group": "resource",
   "gcat": {
    "class": null,
    "category": "IMG",
    "owner": "ADSTI",
    "state": "F"
   },
   "omm": {
    "OBJECT_NAME": "PLEIADES NEO 3",
    "OBJECT_ID": "2021-034A",
    "EPOCH": "2026-06-14T03:31:10.566048",
    "MEAN_MOTION": 14.81668329,
    "ECCENTRICITY": 0.0001352,
    "INCLINATION": 97.8935,
    "RA_OF_ASC_NODE": 239.9574,
    "ARG_OF_PERICENTER": 96.4193,
    "MEAN_ANOMALY": 263.7174,
    "EPHEMERIS_TYPE": 0,
    "CLASSIFICATION_TYPE": "U",
    "NORAD_CAT_ID": 48268,
    "ELEMENT_SET_NO": 999,
    "REV_AT_EPOCH": 27720,
    "BSTAR": 0.00013328,
    "MEAN_MOTION_DOT": 0.00000997,
    "MEAN_MOTION_DDOT": 0
   }
  }
 ]
}
